STARLINK-30282          
1 57883U 23144V   26068.04325904  .00010945  00000+0  41723-3 0  9992
2 57883  43.0010 288.4148 0001358 272.5421  87.5275 15.26729095137546
TROLL                   
1 62658U 25009BB  26068.22522958  .00013174  00000+0  48220-3 0  9994
2 62658  97.3932 150.7169 0001816  59.1850 300.9568 15.28164315118170
